{}{"1364826376357": [{"city": "Greenville", "user_id": 1364826376357, "name": "Stone Plaza Pharmacy", "place_id": 1362237236890894500, "phone": "NONE", "state": "SC", "postal_code": "29609", "address": "1164 Rutherford Road"}, {"city": "Greenville", "user_id": 1364826376357, "name": "QuikTrip", "place_id": 1362415488630627200, "phone": "8642334252", "state": "SC", "postal_code": "29609", "address": "100 RUTHERFORD ST"}, {"city": "Greenville", "user_id": 1364826376357, "name": "Carlton Mercedes Benz", "place_id": 1362517068996042000, "phone": "8642138000", "state": "SC", "postal_code": "29607", "address": "2446 Laurens Rd."}, {"city": "Greenville", "user_id": 1364826376357, "name": "Pumpers", "place_id": 1362518439083254000, "phone": "NONE", "state": "SC", "postal_code": "29607", "address": "400 Haywood Rd"}, {"city": "Greenville", "user_id": 1364826376357, "name": "Radio Shack", "place_id": 1363052666221301800, "phone": "8642420982", "state": "SC", "postal_code": "29609", "address": "1530 Poinsett Hwy"}, {"city": "Greenville", "user_id": 1364826376357, "name": "Smith And Chiles Body Shop", "place_id": 1363697781413446800, "phone": "NONE", "state": "SC", "postal_code": "NONE", "address": "NONE"}, {"city": "Greenville", "user_id": 1364826376357, "name": "Regions Bank", "place_id": 1364260555398730500, "phone": "8007344667", "state": "SC", "postal_code": "29601", "address": "101 East Washington Street"}, {"city": "Greenville", "user_id": 1364826376357, "name": "Crossway Christian Supply", "place_id": 1364468038521319800, "phone": "NONE", "state": "SC", "postal_code": "NONE", "address": "2406 East North St"}, {"city": "Greenville", "user_id": 1364826376357, "name": "Kims Nails", "place_id": 1364570541257109400, "phone": "8642863777", "state": "SC", "postal_code": "29607", "address": "765 Haywood Rd"}, {"city": "Greenville", "last_key": "true", "name": "If Its Paper", "place_id": 1364570799288659000, "phone": "NONE", "state": "SC", "postal_code": "NONE", "address": "2116 Augusta Street", "user_id": 1364826376357}], "1362504282925": [{"city": "greenville", "user_id": 1362504282925, "name": "Lovesac Haywood Mall", "place_id": 1362108799906147200, "phone": "NONE", "state": "sc", "postal_code": "NONE", "address": "NONE"}, {"city": "Greenville", "user_id": 1362504282925, "name": "Old Time Pottery", "place_id": 1362155833251957300, "phone": "NONE", "state": "SC", "postal_code": "29607", "address": "184 S Carolina 146"}, {"city": "Greenville", "user_id": 1362504282925, "name": "SCBT", "place_id": 1362157916947643800, "phone": "NONE", "state": "SC", "postal_code": "29607", "address": "NONE"}, {"city": "Greenville", "user_id": 1362504282925, "name": "Ghost Armor Haywood Mall", "place_id": 1362413592130984400, "phone": "NONE", "state": "SC", "postal_code": "29607", "address": "NONE"}, {"city": "Greenville", "user_id": 1362504282925, "name": "Dallas Skye Salon & Spa", "place_id": 1362439014891263400, "phone": "NONE", "state": "SC", "postal_code": "NONE", "address": "Pelham Road"}, {"city": "Greenville", "user_id": 1362504282925, "name": "Kangaroo Express", "place_id": 1362510702716149200, "phone": "8642889671", "state": "SC", "postal_code": "29607", "address": "1006 Woodruff Rd"}, {"city": "Greenville", "user_id": 1362504282925, "name": "Magic Nails", "place_id": 1363015320944471000, "phone": "NONE", "state": "SC", "postal_code": "29607", "address": "NONE"}, {"city": "Greenville", "user_id": 1362504282925, "name": "City Arcade", "place_id": 1363112730108236300, "phone": "NONE", "state": "SC", "postal_code": "29607", "address": "Fore Street"}, {"city": "Greenville", "user_id": 1362504282925, "name": "Bank of America", "place_id": 1363638967775195600, "phone": "8642406127", "state": "SC", "postal_code": "29609", "address": "1601 Poinsett Hwy"}, {"city": "Wade Hampton", "last_key": "true", "name": "Image Makers", "place_id": 1364233510717603000, "phone": "NONE", "state": "SC", "postal_code": "NONE", "address": "NONE", "user_id": 1362504282925}], "1365196535892": [{"city": "Greenville", "user_id": 1365196535892, "name": "Cherrydale Shopping Center", "place_id": 1362083416288284200, "phone": "NONE", "state": "SC", "postal_code": "29609", "address": "Greenville, SC 29609"}, {"city": "Greenville", "user_id": 1365196535892, "name": "Amanzi tea", "place_id": 1363374476398017800, "phone": "NONE", "state": "SC", "postal_code": "29607", "address": "700 Haywood Rd"}, {"city": "Greenville", "user_id": 1365196535892, "name": "Handyman Service", "place_id": 1363887268508824000, "phone": "NONE", "state": "SC", "postal_code": "29611", "address": "NONE"}, {"city": "Greenville", "user_id": 1365196535892, "name": "CarMax", "place_id": 1364073094931559300, "phone": "8642840331", "state": "SC", "postal_code": "29607", "address": "2800 Laurens Rd."}, {"city": "Greenville", "user_id": 1365196535892, "name": "Kims Nails", "place_id": 1364570541257109400, "phone": "8642863777", "state": "SC", "postal_code": "29607", "address": "765 Haywood Rd"}, {"city": "Greenville", "user_id": 1365196535892, "name": "Spinx", "place_id": 1364585630667500700, "phone": "NONE", "state": "SC", "postal_code": "29605", "address": "94 Allen St"}, {"city": "Greenville", "user_id": 1365196535892, "name": "Midas", "place_id": 1364607452298813000, "phone": "8642423940", "state": "SC", "postal_code": "29607", "address": "336 North Pleasantburg"}, {"city": "Greenville", "user_id": 1365196535892, "name": "Wolf Camera & Image - Promenade at Haywood", "place_id": 1364935051934647700, "phone": "8642886957", "state": "SC", "postal_code": "29607", "address": "765 Haywood Road"}, {"city": "Greenville", "user_id": 1365196535892, "name": "Harrison Lighting", "place_id": 1364998301612786400, "phone": "NONE", "state": "SC", "postal_code": "NONE", "address": "Augusta Rd"}, {"city": "Greenville", "last_key": "true", "name": "T.G.I.S.", "place_id": 1364999008791315400, "phone": "NONE", "state": "SC", "postal_code": "29607", "address": "S. Pleasantburg Dr.", "user_id": 1365196535892}], "1363809513434": [{"city": "Greenville", "user_id": 1363809513434, "name": "Character World", "place_id": 1363187286256945800, "phone": "NONE", "state": "SC", "postal_code": "29607", "address": "NONE"}, {"city": "Greenville", "user_id": 1363809513434, "name": "Grandma's Laundry Room", "place_id": 1363199758074469200, "phone": "9072980", "state": "SC", "postal_code": "29617", "address": "105 Derwood Circle"}, {"city": "Greenville", "user_id": 1363809513434, "name": "GNC", "place_id": 1363360696031794000, "phone": "8642687552", "state": "SC", "postal_code": "29615", "address": "2435 Old Spartangburg Rd"}, {"city": "Greenville", "user_id": 1363809513434, "name": "Uncle Mike's Junktiques", "place_id": 1363641756098984000, "phone": "NONE", "state": "SC", "postal_code": "29611", "address": "4301 White Horse Rd."}, {"city": "Greenville", "user_id": 1363809513434, "name": "Asian Supermarket", "place_id": 1364468287761906000, "phone": "NONE", "state": "SC", "postal_code": "29615", "address": "NONE"}, {"city": "Greenville", "user_id": 1363809513434, "name": "Blockbuster", "place_id": 1364769062305728800, "phone": "8642774122", "state": "SC", "postal_code": "29605", "address": "1300 S Pleasantburg Dr"}, {"city": "Greenville", "user_id": 1363809513434, "name": "Walgreens", "place_id": 1364995367014132800, "phone": "8642346462", "state": "SC", "postal_code": "29615", "address": "902 Pelham Rd."}, {"city": "Greenville", "user_id": 1363809513434, "name": "Home Decor Liquidators", "place_id": 1365079736978520300, "phone": "8643298432", "state": "SC", "postal_code": "29607", "address": "2439 Laurens Road"}, {"city": "Greenville", "user_id": 1363809513434, "name": "Coffee to A Tea", "place_id": 1365192515541608400, "phone": "8643739836", "state": "SC", "postal_code": "29611", "address": "1 Augusta St"}, {"city": "Greenville", "last_key": "true", "name": "Wade Hampton Weight Room", "place_id": 1365272026154041700, "phone": "NONE", "state": "SC", "postal_code": "29609", "address": "106 Pine Knoll Dr.", "user_id": 1363809513434}], "1364498967290": [{"city": "Greenville", "user_id": 1364498967290, "name": "Hickory Point", "place_id": 1362152713475045400, "phone": "NONE", "state": "SC", "postal_code": "29615", "address": "2617 Wade Hampton Blvd"}, {"city": "Greenville", "user_id": 1364498967290, "name": "Nearly New Shop", "place_id": 1362626071417304200, "phone": "8642321051", "state": "SC", "postal_code": "29607", "address": "118 Greenacre Road"}, {"city": "Greenville", "user_id": 1364498967290, "name": "SOS Thrift Store", "place_id": 1364217130160102000, "phone": "NONE", "state": "SC", "postal_code": "29615", "address": "NONE"}, {"city": "Greenville", "user_id": 1364498967290, "name": "Oppa Oxford Style!", "place_id": 1364217979642995600, "phone": "NONE", "state": "SC", "postal_code": "29607", "address": "NONE"}, {"city": "Greenville", "user_id": 1364498967290, "name": "CVS/pharmacy", "place_id": 1364496619449649000, "phone": "NONE", "state": "SC", "postal_code": "29601", "address": "35 S Main St."}, {"city": "Greenville", "user_id": 1364498967290, "name": "PMC Greenville Divorce Law", "place_id": 1364823647356300300, "phone": "8646404086", "state": "SC", "postal_code": "29601", "address": "200 Westfield Street Ste 110"}, {"city": "NONE", "user_id": 1364498967290, "name": "Jeni's Alterations", "place_id": 1364909442854706300, "phone": "NONE", "state": "NONE", "postal_code": "NONE", "address": "NONE"}, {"city": "NONE", "user_id": 1364498967290, "name": "Speedy Mart", "place_id": 1365175284892792500, "phone": "NONE", "state": "NONE", "postal_code": "NONE", "address": "NONE"}, {"city": "Greenville", "user_id": 1364498967290, "name": "Wade Hampton Weight Room", "place_id": 1365272026154041700, "phone": "NONE", "state": "SC", "postal_code": "29609", "address": "106 Pine Knoll Dr."}, {"city": "Greenville", "last_key": "true", "name": "Fiore Boutique", "place_id": 1365461778774405800, "phone": "NONE", "state": "SC", "postal_code": "29607", "address": "NONE", "user_id": 1364498967290}], "1362149676099": [{"city": "Greenville", "user_id": 1362149676099, "name": "Kangaroo Express", "place_id": 1362510702716149200, "phone": "8642889671", "state": "SC", "postal_code": "29607", "address": "1006 Woodruff Rd"}, {"city": "Greenville", "user_id": 1362149676099, "name": "Invitations on Main", "place_id": 1362792209470011000, "phone": "NONE", "state": "SC", "postal_code": "NONE", "address": "209 North Main St."}, {"city": "Greenville", "user_id": 1362149676099, "name": "Christopher Ashley Salon", "place_id": 1364219798469137000, "phone": "8642420777", "state": "SC", "postal_code": "29601", "address": "101B W Court St"}, {"city": "Greenville", "user_id": 1362149676099, "name": "Victoria's Secret", "place_id": 1364229479771687300, "phone": "8642883375", "state": "SC", "postal_code": "29607", "address": "700 Haywood Rd"}, {"city": "Greenville", "user_id": 1362149676099, "name": "Go Fish", "place_id": 1364240078068076200, "phone": "NONE", "state": "SC", "postal_code": "29601", "address": "NONE"}, {"city": "Greenville", "user_id": 1362149676099, "name": "Game Invasion", "place_id": 1364318254106472000, "phone": "NONE", "state": "SC", "postal_code": "29601", "address": "NONE"}, {"city": "Wade Hampton", "user_id": 1362149676099, "name": "Accutech", "place_id": 1364327328753080000, "phone": "NONE", "state": "SC", "postal_code": "NONE", "address": "NONE"}, {"city": "Greenville", "user_id": 1362149676099, "name": "Super Supply Landscape Company", "place_id": 1364594067081857400, "phone": "NONE", "state": "SC", "postal_code": "29601", "address": "Augusta Road"}, {"city": "Greenville", "user_id": 1362149676099, "name": "Music sphere studios", "place_id": 1365171916658840000, "phone": "NONE", "state": "SC", "postal_code": "29607", "address": "NONE"}, {"city": "Greenville", "last_key": "true", "name": "Landscapers Supply", "place_id": 1365348923007530300, "phone": "NONE", "state": "SC", "postal_code": "29609", "address": "NONE", "user_id": 1362149676099}], "1362334601582": [{"city": "Greenville", "user_id": 1362334601582, "name": "Cherrydale Shopping Center", "place_id": 1362083416288284200, "phone": "NONE", "state": "SC", "postal_code": "29609", "address": "Greenville, SC 29609"}, {"city": "Greenville", "user_id": 1362334601582, "name": "Jennie Leigh Design", "place_id": 1362166534187680700, "phone": "NONE", "state": "SC", "postal_code": "29609", "address": "27 Mohawk Drive"}, {"city": "Greenville", "user_id": 1362334601582, "name": "O'Reilly Auto Parts", "place_id": 1362956297914261700, "phone": "8642981941", "state": "SC", "postal_code": "29609", "address": "712 Poinsett Highway"}, {"city": "Greenville", "user_id": 1362334601582, "name": "Handyman Service", "place_id": 1363887268508824000, "phone": "NONE", "state": "SC", "postal_code": "29611", "address": "NONE"}, {"city": "Greenville", "user_id": 1362334601582, "name": "Niche Mobile", "place_id": 1364070043988647700, "phone": "NONE", "state": "SC", "postal_code": "29609", "address": "12 Clarendon Ave."}, {"city": "Greenville", "user_id": 1362334601582, "name": "CarMax", "place_id": 1364073094931559300, "phone": "8642840331", "state": "SC", "postal_code": "29607", "address": "2800 Laurens Rd."}, {"city": "Greenville", "user_id": 1362334601582, "name": "Crossway Christian Supply", "place_id": 1364468038521319800, "phone": "NONE", "state": "SC", "postal_code": "NONE", "address": "2406 East North St"}, {"city": "Greenville", "user_id": 1362334601582, "name": "Midas", "place_id": 1364607452298813000, "phone": "8642423940", "state": "SC", "postal_code": "29607", "address": "336 North Pleasantburg"}, {"city": "Greenville", "user_id": 1362334601582, "name": "Harrison Lighting", "place_id": 1364998301612786400, "phone": "NONE", "state": "SC", "postal_code": "NONE", "address": "Augusta Rd"}, {"city": "Greenville", "last_key": "true", "name": "Handcrafted Hemp (Main Office)", "place_id": 1365271820412856700, "phone": "8647358561", "state": "SC", "postal_code": "29611", "address": "6055A White Horse Road", "user_id": 1362334601582}], "1365096764705": [{"city": "Greenville", "user_id": 1365096764705, "name": "Kims Nails", "place_id": 1364570541257109400, "phone": "8642863777", "state": "SC", "postal_code": "29607", "address": "765 Haywood Rd"}, {"city": "Greenville", "user_id": 1365096764705, "name": "Southern fried cotton", "place_id": 1364841448953545000, "phone": "NONE", "state": "SC", "postal_code": "29601", "address": "NONE"}, {"city": "Greenville", "user_id": 1365096764705, "name": "Earshot// Music. Movies. Mayhem.", "place_id": 1365188166544075400, "phone": "8642321623", "state": "SC", "postal_code": "29607", "address": "1418 Laurens Rd"}, {"city": "Greenville", "user_id": 1365096764705, "name": "Roach Law Firm", "place_id": 1365434917911905300, "phone": "8649918500", "state": "SC", "postal_code": "29601", "address": "11 N Irvine St # 1"}, {"city": "Greenville", "last_key": "true", "name": "Fiore Boutique", "place_id": 1365461778774405800, "phone": "NONE", "state": "SC", "postal_code": "29607", "address": "NONE", "user_id": 1365096764705}], "1362325060895": [{"city": "Greenville", "user_id": 1362325060895, "name": "Surplus Warehouse", "place_id": 1362111676595637500, "phone": "NONE", "state": "SC", "postal_code": "29607", "address": "20 Woodruff Rd"}, {"city": "NONE", "user_id": 1362325060895, "name": "Crosspointe Plaza", "place_id": 1362183373286542500, "phone": "NONE", "state": "NONE", "postal_code": "NONE", "address": "NONE"}, {"city": "Greenville", "user_id": 1362325060895, "name": "The Music Room", "place_id": 1363042076392898400, "phone": "NONE", "state": "SC", "postal_code": "29607", "address": "NONE"}, {"city": "NONE", "user_id": 1362325060895, "name": "Coops Tanning Bed B", "place_id": 1363092893519225300, "phone": "NONE", "state": "NONE", "postal_code": "NONE", "address": "NONE"}, {"city": "Greenville", "user_id": 1362325060895, "name": "Hands Down Massage", "place_id": 1363191516606135700, "phone": "NONE", "state": "SC", "postal_code": "29609", "address": "1 Chick Springs Road, Ste 217"}, {"city": "Greenville", "user_id": 1362325060895, "name": "Proforma ImagePrint", "place_id": 1363725672340040000, "phone": "8644342053", "state": "SC", "postal_code": "29601", "address": "200 East Camperdown Way"}, {"city": "Greenville", "user_id": 1362325060895, "name": "Ultra tan", "place_id": 1364173849888557000, "phone": "NONE", "state": "SC", "postal_code": "29605", "address": "1922 Augusta St Suite 105"}, {"city": "Greenville", "user_id": 1362325060895, "name": "Brookstone", "place_id": 1364848475902731700, "phone": "8644587021", "state": "SC", "postal_code": "29607", "address": "Haywood Mall"}, {"city": "Greenville", "user_id": 1362325060895, "name": "Wolf Camera & Image - Promenade at Haywood", "place_id": 1364935051934647700, "phone": "8642886957", "state": "SC", "postal_code": "29607", "address": "765 Haywood Road"}, {"city": "Greenville", "last_key": "true", "name": "Ivy Aveda Color Salon", "place_id": 1365081362119365500, "phone": "8643701489", "state": "SC", "postal_code": "29601", "address": "19 S Main St.", "user_id": 1362325060895}], "1365348819101": [{"city": "Greenville", "user_id": 1365348819101, "name": "Cherrydale Shopping Center", "place_id": 1362083416288284200, "phone": "NONE", "state": "SC", "postal_code": "29609", "address": "Greenville, SC 29609"}, {"city": "Greenville", "user_id": 1365348819101, "name": "Shell Station Aka PAKS", "place_id": 1362125527530292500, "phone": "NONE", "state": "SC", "postal_code": "29607", "address": "NONE"}, {"city": "Greenville", "user_id": 1365348819101, "name": "Wells Fargo", "place_id": 1362430553492082300, "phone": "NONE", "state": "SC", "postal_code": "29615", "address": "2616 Wade Hampton Blvd."}, {"city": "Greenville", "user_id": 1365348819101, "name": "Radio Shack", "place_id": 1363052666221301800, "phone": "8642420982", "state": "SC", "postal_code": "29609", "address": "1530 Poinsett Hwy"}, {"city": "Greenville", "user_id": 1365348819101, "name": "CVS/pharmacy", "place_id": 1364496619449649000, "phone": "NONE", "state": "SC", "postal_code": "29601", "address": "35 S Main St."}, {"city": "Greenville", "user_id": 1365348819101, "name": "Kims Nails", "place_id": 1364570541257109400, "phone": "8642863777", "state": "SC", "postal_code": "29607", "address": "765 Haywood Rd"}, {"city": "Greenville", "user_id": 1365348819101, "name": "Midas", "place_id": 1364607452298813000, "phone": "8642423940", "state": "SC", "postal_code": "29607", "address": "336 North Pleasantburg"}, {"city": "Greenville", "user_id": 1365348819101, "name": "Smell Good Stuffs", "place_id": 1364755617147632300, "phone": "NONE", "state": "SC", "postal_code": "29607", "address": "NONE"}, {"city": "Greenville", "user_id": 1365348819101, "name": "Apple Store", "place_id": 1364824428766803700, "phone": "8649877580", "state": "SC", "postal_code": "29607", "address": "700 Haywood Road, Suite 106"}, {"city": "Greenville", "last_key": "true", "name": "Rumfelts T.V Sales & Service", "place_id": 1365362730189916000, "phone": "NONE", "state": "SC", "postal_code": "29611", "address": "6259 Whitehorse Rd", "user_id": 1365348819101}]}