{"1363718301377": [{"city": "Greenville", "user_id": 1363718301377, "name": "Wells Fargo", "place_id": 1362430553492082300, "phone": "NONE", "state": "SC", "postal_code": "29615", "address": "2616 Wade Hampton Blvd."}, {"city": "Greenville", "user_id": 1363718301377, "name": "BP", "place_id": 1364326290730717800, "phone": "8642202887", "state": "SC", "postal_code": "29611", "address": "3053 White Horse Rd"}, {"city": "Greenville", "user_id": 1363718301377, "name": "Crossway Christian Supply", "place_id": 1364468038521319800, "phone": "NONE", "state": "SC", "postal_code": "NONE", "address": "2406 East North St"}, {"city": "Greenville", "user_id": 1363718301377, "name": "Midas", "place_id": 1364607452298813000, "phone": "8642423940", "state": "SC", "postal_code": "29607", "address": "336 North Pleasantburg"}, {"city": "Greenville", "user_id": 1363718301377, "name": "West Stone Salon", "place_id": 1364749958672450400, "phone": "8642713220", "state": "SC", "postal_code": "29609", "address": "123 W. Stone Ave"}, {"city": "Greenville", "user_id": 1363718301377, "name": "Wade Hampton Weight Room", "place_id": 1365272026154041700, "phone": "NONE", "state": "SC", "postal_code": "29609", "address": "106 Pine Knoll Dr."}, {"city": "Greenville", "user_id": 1363718301377, "name": "Regions Bank", "place_id": 1365339802269273700, "phone": "8007344667", "state": "SC", "postal_code": "29607", "address": "290 South Pleasantburg Drive"}, {"city": "Greenville", "user_id": 1363718301377, "name": "Landscapers Supply", "place_id": 1365348923007530300, "phone": "NONE", "state": "SC", "postal_code": "29609", "address": "NONE"}, {"city": "Greenville", "user_id": 1363718301377, "name": "Rumfelts T.V Sales & Service", "place_id": 1365362730189916000, "phone": "NONE", "state": "SC", "postal_code": "29611", "address": "6259 Whitehorse Rd"}, {"city": "Greenville", "last_key": "true", "name": "FAC Clay Studio", "place_id": 1365381768121085000, "phone": "NONE", "state": "SC", "postal_code": "29615", "address": "NONE", "user_id": 1363718301377}]}